[{"OBJECT_NAME":"FLOCK 4H-35","OBJECT_ID":"2025-276CA","EPOCH":"2026-03-09T10:26:28.836672","MEAN_MOTION":15.19480603,"ECCENTRICITY":4.762e-5,"INCLINATION":97.4266,"RA_OF_ASC_NODE":143.8032,"ARG_OF_PERICENTER":262.5938,"MEAN_ANOMALY":97.5242,"EPHEMERIS_TYPE":0,"CLASSIFICATION_TYPE":"U","NORAD_CAT_ID":66738,"ELEMENT_SET_NO":999,"REV_AT_EPOCH":1457,"BSTAR":0.00040654248,"MEAN_MOTION_DOT":8.562e-5,"MEAN_MOTION_DDOT":0},{"OBJECT_NAME":"DELTA 1 DEB","OBJECT_ID":"1977-065FR","EPOCH":"2026-03-09T05:35:40.773120","MEAN_MOTION":14.28278383,"ECCENTRICITY":0.04283398,"INCLINATION":29.171,"RA_OF_ASC_NODE":124.9449,"ARG_OF_PERICENTER":345.5547,"MEAN_ANOMALY":13.3121,"EPHEMERIS_TYPE":0,"CLASSIFICATION_TYPE":"U","NORAD_CAT_ID":14563,"ELEMENT_SET_NO":999,"REV_AT_EPOCH":77321,"BSTAR":0.00069118511,"MEAN_MOTION_DOT":4.927e-5,"MEAN_MOTION_DDOT":0}]
